ONEWEB-0664             
1 55824U 23029AE  26016.22334126  .00000090  00000+0  18924-3 0  9993
2 55824  87.9223 304.8135 0002046  70.2836 289.8518 13.20772657141084
ONEWEB-0665             
1 55825U 23029AF  26016.30339821  .00000133  00000+0  32336-3 0  9991
2 55825  87.9024 320.0025 0001640  66.1536 293.9766 13.14502790139453
ONEWEB-0666             
1 55826U 23029AG  26016.21702820  .00000103  00000+0  22082-3 0  9999
2 55826  87.9226 304.8042 0001968  98.9386 261.1970 13.20771294141097
ONEWEB-0667             
1 55827U 23029AH  26016.21072063  .00000132  00000+0  29377-3 0  9995
2 55827  87.9234 304.7419 0001759  69.2207 290.9114 13.20771330141085
ONEWEB-0669             
1 55828U 23029AJ  26016.20598527  .00000165  00000+0  37436-3 0  9994
2 55828  87.9226 304.7730 0002328  79.4268 280.7128 13.20770685141080
ONEWEB-0670             
1 55829U 23029AK  26016.28118797  .00000253  00000+0  64766-3 0  9994
2 55829  87.9020 320.0267 0001975  68.0218 292.1122 13.14501754139478
ONEWEB-0671             
1 55830U 23029AL  26016.27828775  .00000038  00000+0  63826-4 0  9997
2 55830  87.9232 335.2078 0001760  74.6124 285.5203 13.19724918138866
ONEWEB-0672             
1 55831U 23029AM  26016.20125190  .00000065  00000+0  12754-3 0  9995
2 55831  87.9229 304.7562 0001868  83.4596 276.6750 13.20772159141080
ONEWEB-0673             
1 55832U 23029AN  26015.34558223  .00000076  00000+0  15675-3 0  9994
2 55832  87.9242 335.3768 0001813  76.0922 284.0412 13.19725608138747
ONEWEB-0674             
1 55833U 23029AP  26016.24948602 -.00000215  00000+0 -61362-3 0  9990
2 55833  87.9017 320.0102 0002087  67.9655 292.1696 13.14502473139458
ONEWEB-0675             
1 55834U 23029AQ  26016.11875995  .00000055  00000+0  10398-3 0  9994
2 55834  87.9224 335.2451 0001700  90.6307 269.5021 13.19726125138863
ONEWEB-0720             
1 55835U 23029AR  26016.11085635 -.00000029  00000+0 -10401-3 0  9997
2 55835  87.9226 335.2453 0001491  71.8577 288.2718 13.19725578138788
ONEWEB-0537             
1 56046U 23043A   26016.20067927  .00000105  00000+0  24020-3 0  9997
2 56046  87.9031 259.0324 0001500  88.1486 271.9817 13.16594980138965
ONEWEB-0538             
1 56047U 23043B   26016.19434143  .00000122  00000+0  28569-3 0  9995
2 56047  87.9029 259.0369 0001211  83.3581 276.7687 13.16594500138971
ONEWEB-0546             
1 56048U 23043C   26016.18167659  .00000059  00000+0  12057-3 0  9994
2 56048  87.9034 259.0345 0001863  99.4161 260.7181 13.16594755138960
ONEWEB-0547             
1 56049U 23043D   26016.17480173  .00000036  00000+0  55045-4 0  9993
2 56049  87.9219 274.2967 0001415  74.7501 285.3789 13.21824026138142
