[{"OBJECT_NAME":"ONEWEB-0664","OBJECT_ID":"2023-029AE","EPOCH":"2026-01-16T05:21:36.684864","MEAN_MOTION":13.20772657,"ECCENTRICITY":0.00020469,"INCLINATION":87.9223,"RA_OF_ASC_NODE":304.8135,"ARG_OF_PERICENTER":70.2836,"MEAN_ANOMALY":289.8518,"EPHEMERIS_TYPE":0,"CLASSIFICATION_TYPE":"U","NORAD_CAT_ID":55824,"ELEMENT_SET_NO":999,"REV_AT_EPOCH":14108,"BSTAR":0.00018923852,"MEAN_MOTION_DOT":9.0e-7,"MEAN_MOTION_DDOT":0},{"OBJECT_NAME":"ONEWEB-0665","OBJECT_ID":"2023-029AF","EPOCH":"2026-01-16T07:16:53.605344","MEAN_MOTION":13.1450279,"ECCENTRICITY":0.00016407,"INCLINATION":87.9024,"RA_OF_ASC_NODE":320.0025,"ARG_OF_PERICENTER":66.1536,"MEAN_ANOMALY":293.9766,"EPHEMERIS_TYPE":0,"CLASSIFICATION_TYPE":"U","NORAD_CAT_ID":55825,"ELEMENT_SET_NO":999,"REV_AT_EPOCH":13945,"BSTAR":0.00032335834,"MEAN_MOTION_DOT":1.33e-6,"MEAN_MOTION_DDOT":0},{"OBJECT_NAME":"ONEWEB-0666","OBJECT_ID":"2023-029AG","EPOCH":"2026-01-16T05:12:31.236480","MEAN_MOTION":13.20771294,"ECCENTRICITY":0.00019683,"INCLINATION":87.9226,"RA_OF_ASC_NODE":304.8042,"ARG_OF_PERICENTER":98.9386,"MEAN_ANOMALY":261.197,"EPHEMERIS_TYPE":0,"CLASSIFICATION_TYPE":"U","NORAD_CAT_ID":55826,"ELEMENT_SET_NO":999,"REV_AT_EPOCH":14109,"BSTAR":0.00022081749,"MEAN_MOTION_DOT":1.03e-6,"MEAN_MOTION_DDOT":0},{"OBJECT_NAME":"ONEWEB-0667","OBJECT_ID":"2023-029AH","EPOCH":"2026-01-16T05:03:26.262432","MEAN_MOTION":13.2077133,"ECCENTRICITY":0.00017592,"INCLINATION":87.9234,"RA_OF_ASC_NODE":304.7419,"ARG_OF_PERICENTER":69.2207,"MEAN_ANOMALY":290.9114,"EPHEMERIS_TYPE":0,"CLASSIFICATION_TYPE":"U","NORAD_CAT_ID":55827,"ELEMENT_SET_NO":999,"REV_AT_EPOCH":14108,"BSTAR":0.00029376543,"MEAN_MOTION_DOT":1.32e-6,"MEAN_MOTION_DDOT":0},{"OBJECT_NAME":"ONEWEB-0669","OBJECT_ID":"2023-029AJ","EPOCH":"2026-01-16T04:56:37.127328","MEAN_MOTION":13.20770685,"ECCENTRICITY":0.00023285,"INCLINATION":87.9226,"RA_OF_ASC_NODE":304.773,"ARG_OF_PERICENTER":79.4268,"MEAN_ANOMALY":280.7128,"EPHEMERIS_TYPE":0,"CLASSIFICATION_TYPE":"U","NORAD_CAT_ID":55828,"ELEMENT_SET_NO":999,"REV_AT_EPOCH":14108,"BSTAR":0.00037435798,"MEAN_MOTION_DOT":1.65e-6,"MEAN_MOTION_DDOT":0},{"OBJECT_NAME":"ONEWEB-0670","OBJECT_ID":"2023-029AK","EPOCH":"2026-01-16T06:44:54.640608","MEAN_MOTION":13.14501754,"ECCENTRICITY":0.00019756,"INCLINATION":87.902,"RA_OF_ASC_NODE":320.0267,"ARG_OF_PERICENTER":68.0218,"MEAN_ANOMALY":292.1122,"EPHEMERIS_TYPE":0,"CLASSIFICATION_TYPE":"U","NORAD_CAT_ID":55829,"ELEMENT_SET_NO":999,"REV_AT_EPOCH":13947,"BSTAR":0.00064766264,"MEAN_MOTION_DOT":2.53e-6,"MEAN_MOTION_DDOT":0},{"OBJECT_NAME":"ONEWEB-0671","OBJECT_ID":"2023-029AL","EPOCH":"2026-01-16T06:40:44.061600","MEAN_MOTION":13.19724918,"ECCENTRICITY":0.00017606,"INCLINATION":87.9232,"RA_OF_ASC_NODE":335.2078,"ARG_OF_PERICENTER":74.6124,"MEAN_ANOMALY":285.5203,"EPHEMERIS_TYPE":0,"CLASSIFICATION_TYPE":"U","NORAD_CAT_ID":55830,"ELEMENT_SET_NO":999,"REV_AT_EPOCH":13886,"BSTAR":6.3825681e-5,"MEAN_MOTION_DOT":3.8e-7,"MEAN_MOTION_DDOT":0},{"OBJECT_NAME":"ONEWEB-0672","OBJECT_ID":"2023-029AM","EPOCH":"2026-01-16T04:49:48.164160","MEAN_MOTION":13.20772159,"ECCENTRICITY":0.00018688,"INCLINATION":87.9229,"RA_OF_ASC_NODE":304.7562,"ARG_OF_PERICENTER":83.4596,"MEAN_ANOMALY":276.675,"EPHEMERIS_TYPE":0,"CLASSIFICATION_TYPE":"U","NORAD_CAT_ID":55831,"ELEMENT_SET_NO":999,"REV_AT_EPOCH":14108,"BSTAR":0.00012753704,"MEAN_MOTION_DOT":6.5e-7,"MEAN_MOTION_DDOT":0},{"OBJECT_NAME":"ONEWEB-0673","OBJECT_ID":"2023-029AN","EPOCH":"2026-01-15T08:17:38.304672","MEAN_MOTION":13.19725608,"ECCENTRICITY":0.0001813,"INCLINATION":87.9242,"RA_OF_ASC_NODE":335.3768,"ARG_OF_PERICENTER":76.0922,"MEAN_ANOMALY":284.0412,"EPHEMERIS_TYPE":0,"CLASSIFICATION_TYPE":"U","NORAD_CAT_ID":55832,"ELEMENT_SET_NO":999,"REV_AT_EPOCH":13874,"BSTAR":0.00015675138,"MEAN_MOTION_DOT":7.6e-7,"MEAN_MOTION_DDOT":0},{"OBJECT_NAME":"ONEWEB-0674","OBJECT_ID":"2023-029AP","EPOCH":"2026-01-16T05:59:15.592128","MEAN_MOTION":13.14502473,"ECCENTRICITY":0.00020874,"INCLINATION":87.9017,"RA_OF_ASC_NODE":320.0102,"ARG_OF_PERICENTER":67.9655,"MEAN_ANOMALY":292.1696,"EPHEMERIS_TYPE":0,"CLASSIFICATION_TYPE":"U","NORAD_CAT_ID":55833,"ELEMENT_SET_NO":999,"REV_AT_EPOCH":13945,"BSTAR":-0.00061362033,"MEAN_MOTION_DOT":-2.15e-6,"MEAN_MOTION_DDOT":0},{"OBJECT_NAME":"ONEWEB-0675","OBJECT_ID":"2023-029AQ","EPOCH":"2026-01-16T02:51:00.859680","MEAN_MOTION":13.19726125,"ECCENTRICITY":0.00017002,"INCLINATION":87.9224,"RA_OF_ASC_NODE":335.2451,"ARG_OF_PERICENTER":90.6307,"MEAN_ANOMALY":269.5021,"EPHEMERIS_TYPE":0,"CLASSIFICATION_TYPE":"U","NORAD_CAT_ID":55834,"ELEMENT_SET_NO":999,"REV_AT_EPOCH":13886,"BSTAR":0.0001039776,"MEAN_MOTION_DOT":5.5e-7,"MEAN_MOTION_DDOT":0},{"OBJECT_NAME":"ONEWEB-0720","OBJECT_ID":"2023-029AR","EPOCH":"2026-01-16T02:39:37.988640","MEAN_MOTION":13.19725578,"ECCENTRICITY":0.00014915,"INCLINATION":87.9226,"RA_OF_ASC_NODE":335.2453,"ARG_OF_PERICENTER":71.8577,"MEAN_ANOMALY":288.2718,"EPHEMERIS_TYPE":0,"CLASSIFICATION_TYPE":"U","NORAD_CAT_ID":55835,"ELEMENT_SET_NO":999,"REV_AT_EPOCH":13878,"BSTAR":-0.00010400716,"MEAN_MOTION_DOT":-2.9e-7,"MEAN_MOTION_DDOT":0},{"OBJECT_NAME":"ONEWEB-0537","OBJECT_ID":"2023-043A","EPOCH":"2026-01-16T04:48:58.688928","MEAN_MOTION":13.1659498,"ECCENTRICITY":0.00015007,"INCLINATION":87.9031,"RA_OF_ASC_NODE":259.0324,"ARG_OF_PERICENTER":88.1486,"MEAN_ANOMALY":271.9817,"EPHEMERIS_TYPE":0,"CLASSIFICATION_TYPE":"U","NORAD_CAT_ID":56046,"ELEMENT_SET_NO":999,"REV_AT_EPOCH":13896,"BSTAR":0.00024019636,"MEAN_MOTION_DOT":1.05e-6,"MEAN_MOTION_DDOT":0},{"OBJECT_NAME":"ONEWEB-0538","OBJECT_ID":"2023-043B","EPOCH":"2026-01-16T04:39:51.099552","MEAN_MOTION":13.165945,"ECCENTRICITY":0.00012114,"INCLINATION":87.9029,"RA_OF_ASC_NODE":259.0369,"ARG_OF_PERICENTER":83.3581,"MEAN_ANOMALY":276.7687,"EPHEMERIS_TYPE":0,"CLASSIFICATION_TYPE":"U","NORAD_CAT_ID":56047,"ELEMENT_SET_NO":999,"REV_AT_EPOCH":13897,"BSTAR":0.00028569023,"MEAN_MOTION_DOT":1.22e-6,"MEAN_MOTION_DDOT":0},{"OBJECT_NAME":"ONEWEB-0546","OBJECT_ID":"2023-043C","EPOCH":"2026-01-16T04:21:36.857376","MEAN_MOTION":13.16594755,"ECCENTRICITY":0.00018639,"INCLINATION":87.9034,"RA_OF_ASC_NODE":259.0345,"ARG_OF_PERICENTER":99.4161,"MEAN_ANOMALY":260.7181,"EPHEMERIS_TYPE":0,"CLASSIFICATION_TYPE":"U","NORAD_CAT_ID":56048,"ELEMENT_SET_NO":999,"REV_AT_EPOCH":13896,"BSTAR":0.00012056875,"MEAN_MOTION_DOT":5.9e-7,"MEAN_MOTION_DDOT":0},{"OBJECT_NAME":"ONEWEB-0547","OBJECT_ID":"2023-043D","EPOCH":"2026-01-16T04:11:42.869472","MEAN_MOTION":13.21824026,"ECCENTRICITY":0.00014157,"INCLINATION":87.9219,"RA_OF_ASC_NODE":274.2967,"ARG_OF_PERICENTER":74.7501,"MEAN_ANOMALY":285.3789,"EPHEMERIS_TYPE":0,"CLASSIFICATION_TYPE":"U","NORAD_CAT_ID":56049,"ELEMENT_SET_NO":999,"REV_AT_EPOCH":13814,"BSTAR":5.5044845e-5,"MEAN_MOTION_DOT":3.6e-7,"MEAN_MOTION_DDOT":0}]
